NORAD_CAT_ID,OBJECT_NAME,OBJECT_TYPE,EPOCH,MEAN_MOTION,ECCENTRICITY,INCLINATION,RA_OF_ASC_NODE,ARG_OF_PERICENTER,MEAN_ANOMALY,BSTAR,MEAN_MOTION_DOT,MEAN_MOTION_DDOT,TLE_LINE0,TLE_LINE1,TLE_LINE2,SEMIMAJOR_AXIS,PERIOD,APOGEE,PERIGEE,DECAYED
49164.0,STARLINK-3106,PAYLOAD,2023-01-03 14:44:57,14.98326369,0.0003163,70.0002,321.9345,267.7269,92.3528,0.00010783,1.194e-05,0.0,0 STARLINK-3106,1 49164U 21082AL  23003.61455120  .00001194  00000-0  10783-3 0  9996,2 49164  70.0002 321.9345 0003163 267.7269  92.3528 14.98326369 73723,6950.204000000002,96.107,574.2669999999998,569.871,0.0
49164.0,STARLINK-3106,PAYLOAD,2023-01-04 06:46:17,14.98339919,0.0003081,70.0003,320.2511,269.2712,90.8094,0.00029344,3.411e-05,0.0,0 STARLINK-3106,1 49164U 21082AL  23004.28214246  .00003411  00000-0  29344-3 0  9999,2 49164  70.0003 320.2511 0003081 269.2712  90.8094 14.98339919 73827,6950.1619999999975,96.106,574.169,569.886,0.0
49164.0,STARLINK-3106,PAYLOAD,2023-01-04 14:46:57,14.98344556,0.0003114,70.0001,319.4095,268.8972,91.183,0.00027331,3.171e-05,0.0,0 STARLINK-3106,1 49164U 21082AL  23004.61593847  .00003171  00000-0  27331-3 0  9990,2 49164  70.0001 319.4095 0003114 268.8972  91.1830 14.98344556 73872,6950.148,96.106,574.177,569.849,0.0
49164.0,STARLINK-3106,PAYLOAD,2023-01-05 06:48:17,14.98352314,0.0003123,70.0013,317.7264,269.6267,90.4535,0.00025835,2.993e-05,0.0,0 STARLINK-3106,1 49164U 21082AL  23005.28353106  .00002993  00000-0  25835-3 0  9994,2 49164  70.0013 317.7264 0003123 269.6267  90.4535 14.98352314 73976,6950.124,96.106,574.159,569.818,0.0
49164.0,STARLINK-3106,PAYLOAD,2023-01-06 06:50:18,14.98325647,0.0003069,70.0012,315.2016,270.0072,90.0735,-0.00027186,-3.335e-05,0.0,0 STARLINK-3106,1 49164U 21082AL  23006.28493769 -.00003335  00000-0 -27186-3 0  9999,2 49164  70.0012 315.2016 0003069 270.0072  90.0735 14.98325647 74127,6950.206,96.107,574.2040000000002,569.938,0.0
49164.0,STARLINK-3106,PAYLOAD,2023-01-06 13:14:52,14.98321505,0.0003013,69.9999,314.5285,269.0724,91.009,-0.00027012,-3.314e-05,0.0,0 STARLINK-3106,1 49164U 21082AL  23006.55199094 -.00003314  00000-0 -27012-3 0  9998,2 49164  69.9999 314.5285 0003013 269.0724  91.0090 14.98321505 74167,6950.219,96.108,574.178,569.99,0.0
49164.0,STARLINK-3106,PAYLOAD,2023-01-06 22:51:39,14.98327253,0.0003067,70.0,313.5185,268.47700000000003,91.6037,-0.00011639,-1.481e-05,0.0,0 STARLINK-3106,1 49164U 21082AL  23006.95254534 -.00001481  00000-0 -11639-3 0  9994,2 49164  70.0000 313.5185 0003067 268.4770  91.6037 14.98327253 74224,6950.201,96.107,574.198,569.935,0.0
49164.0,STARLINK-3106,PAYLOAD,2023-01-07 06:52:19,14.98334776,0.0003061,70.0,312.6769,268.2052,91.8756,-5.7689e-05,-7.81e-06,0.0,0 STARLINK-3106,1 49164U 21082AL  23007.28633968 -.00000781  00000-0 -57689-4 0  9991,2 49164  70.0000 312.6769 0003061 268.2052  91.8756 14.98334776 74270,6950.178000000001,96.107,574.1709999999998,569.9159999999998,0.0
49164.0,STARLINK-3106,PAYLOAD,2023-01-07 13:16:51,14.98342611,0.0003008,70.0003,312.0036,269.6217,90.4597,-4.5489e-05,-6.36e-06,0.0,0 STARLINK-3106,1 49164U 21082AL  23007.55337378 -.00000636  00000-0 -45489-4 0  9991,2 49164  70.0003 312.0036 0003008 269.6217  90.4597 14.98342611 74313,6950.154,96.106,574.109,569.928,0.0
49164.0,STARLINK-3106,PAYLOAD,2023-01-07 19:41:23,14.98339893,0.0003002,70.0001,311.3302,269.2583,90.8232,0.00018139,2.073e-05,0.0,0 STARLINK-3106,1 49164U 21082AL  23007.82041032  .00002073  00000-0  18139-3 0  9996,2 49164  70.0001 311.3302 0003002 269.2583  90.8232 14.98339893 74357,6950.161999999998,96.106,574.114,569.941,0.0
49164.0,STARLINK-3106,PAYLOAD,2023-01-08 13:18:52,14.98327495,0.0003068,70.0003,309.4790000000001,267.4581,92.6227,0.00022929,2.644e-05,0.0,0 STARLINK-3106,1 49164U 21082AL  23008.55477872  .00002644  00000-0  22929-3 0  9998,2 49164  70.0003 309.4790 0003068 267.4581  92.6227 14.98327495 74469,6950.201,96.107,574.198,569.933,0.0
49164.0,STARLINK-3106,PAYLOAD,2023-01-08 19:43:25,14.98325855,0.0002986,70.0004,308.806,267.035,93.0468,0.00021601,2.485e-05,0.0,0 STARLINK-3106,1 49164U 21082AL  23008.82182210  .00002485  00000-0  21601-3 0  9996,2 49164  70.0004 308.8060 0002986 267.0350  93.0468 14.98325855 74506,6950.206,96.107,574.146,569.995,0.0
49164.0,STARLINK-3106,PAYLOAD,2023-01-09 13:20:54,14.98330134,0.000311,70.0003,306.9542,269.0795,91.0007,3.4539e-05,3.19e-06,0.0,0 STARLINK-3106,1 49164U 21082AL  23009.55618406  .00000319  00000-0  34539-4 0  9997,2 49164  70.0003 306.9542 0003110 269.0795  91.0007 14.98330134 74619,6950.191999999999,96.107,574.219,569.896,0.0
49164.0,STARLINK-3106,PAYLOAD,2023-01-10 03:46:06,14.98337267,0.0003111,70.0005,305.4389,267.0893,92.991,3.5973e-05,3.36e-06,0.0,0 STARLINK-3106,1 49164U 21082AL  23010.15701757  .00000336  00000-0  35973-4 0  9999,2 49164  70.0005 305.4389 0003111 267.0893  92.9910 14.98337267 74709,6950.17,96.107,574.198,569.873,0.0
49164.0,STARLINK-3106,PAYLOAD,2023-01-10 13:22:54,14.98334846,0.0003034,70.0003,304.4292,269.1012,90.9799,0.00012411,1.388e-05,0.0,0 STARLINK-3106,1 49164U 21082AL  23010.55757727  .00001388  00000-0  12411-3 0  9990,2 49164  70.0003 304.4292 0003034 269.1012  90.9799 14.98334846 74768,6950.178000000001,96.107,574.1519999999998,569.934,0.0
49164.0,STARLINK-3106,PAYLOAD,2023-01-10 21:23:35,14.98321249,0.0003565,70.0002,303.5879,266.2061,93.8691,0.00018954,2.169e-05,0.0,0 STARLINK-3106,1 49164U 21082AL  23010.89138468  .00002169  00000-0  18954-3 0  9998,2 49164  70.0002 303.5879 0003565 266.2061  93.8691 14.98321249 74811,6950.22,96.108,574.563,569.607,0.0
49164.0,STARLINK-3106,PAYLOAD,2023-01-11 03:48:07,14.98331004,0.0003092,70.0016,302.915,279.1504,80.9305,0.00026973,3.127e-05,0.0,0 STARLINK-3106,1 49164U 21082AL  23011.15842080  .00003127  00000-0  26973-3 0  9995,2 49164  70.0016 302.9150 0003092 279.1504  80.9305 14.98331004 74854,6950.19,96.107,574.2040000000002,569.906,0.0
49164.0,STARLINK-3106,PAYLOAD,2023-01-11 05:24:15,14.98332202,0.0003194,70.0003,302.746,268.2108,91.8685,0.00026955,3.125e-05,0.0,0 STARLINK-3106,1 49164U 21082AL  23011.22517809  .00003125  00000-0  26955-3 0  9999,2 49164  70.0003 302.7460 0003194 268.2108  91.8685 14.98332202 74868,6950.186,96.107,574.271,569.831,0.0
49164.0,STARLINK-3106,PAYLOAD,2023-01-11 19:49:29,14.98322731,0.0002531,70.0042,301.2290000000001,275.7036,84.3835,-8.337399999999999e-05,-1.087e-05,0.0,0 STARLINK-3106,1 49164U 21082AL  23011.82603602 -.00001087  00000-0 -83374-4 0  9998,2 49164  70.0042 301.2290 0002531 275.7036  84.3835 14.98322731 74953,6950.215,96.107,573.839,570.321,0.0
49164.0,STARLINK-3106,PAYLOAD,2023-01-12 02:14:01,14.98323436,0.0003099,70.0002,300.5582,269.9613,90.1191,3.2339e-06,-5.4e-07,0.0,0 STARLINK-3106,1 49164U 21082AL  23012.09307318 -.00000054  00000-0  32339-5 0  9991,2 49164  70.0002 300.5582 0003099 269.9613  90.1191 14.98323436 74998,6950.213000000002,96.107,574.232,569.924,0.0
49164.0,STARLINK-3106,PAYLOAD,2023-01-12 11:50:49,14.98327093,0.0003016,70.0005,299.5484,268.5055,91.5759,5.4883e-05,5.62e-06,0.0,0 STARLINK-3106,1 49164U 21082AL  23012.49363157  .00000562  00000-0  54883-4 0  9998,2 49164  70.0005 299.5484 0003016 268.5055  91.5759 14.98327093 75059,6950.201999999998,96.107,574.163,569.971,0.0
49164.0,STARLINK-3106,PAYLOAD,2023-01-13 02:16:01,14.98339351,0.0003063,70.0015,298.0331,270.2773,89.8035,0.00032452,3.782e-05,0.0,0 STARLINK-3106,1 49164U 21082AL  23013.09446543  .00003782  00000-0  32452-3 0  9990,2 49164  70.0015 298.0331 0003063 270.2773  89.8035 14.98339351 75141,6950.164000000002,96.106,574.158,569.9,0.0
49164.0,STARLINK-3106,PAYLOAD,2023-01-13 11:52:50,14.98333399,0.0002963,70.002,297.0234,274.5701,85.512,0.00029014,3.371e-05,0.0,0 STARLINK-3106,1 49164U 21082AL  23013.49502972  .00003371  00000-0  29014-3 0  9997,2 49164  70.0020 297.0234 0002963 274.5701  85.5120 14.98333399 75205,6950.182,96.107,574.107,569.988,0.0
49164.0,STARLINK-3106,PAYLOAD,2023-01-13 18:17:23,14.98330976,0.0002414,70.003,296.3518,269.7486,90.3396,0.00026376,3.056e-05,0.0,0 STARLINK-3106,1 49164U 21082AL  23013.76207302  .00003056  00000-0  26376-3 0  9994,2 49164  70.0030 296.3518 0002414 269.7486  90.3396 14.98330976 75241,6950.19,96.107,573.7330000000001,570.377,0.0
49164.0,STARLINK-3106,PAYLOAD,2023-01-14 11:54:51,14.98335365,0.0003106999999999,70.0014,294.4988,273.8939,86.1865,0.00020258,2.325e-05,0.0,0 STARLINK-3106,1 49164U 21082AL  23014.49642941  .00002325  00000-0  20258-3 0  9998,2 49164  70.0014 294.4988 0003107 273.8939  86.1865 14.98335365 75355,6950.176,96.107,574.201,569.882,0.0
49164.0,STARLINK-3106,PAYLOAD,2023-01-15 03:56:12,14.98339779,0.0003113,70.0011,292.8153,272.2311,87.8491,0.00025531,2.955e-05,0.0,0 STARLINK-3106,1 49164U 21082AL  23015.16402782  .00002955  00000-0  25531-3 0  9998,2 49164  70.0011 292.8153 0003113 272.2311  87.8491 14.98339779 75459,6950.1630000000005,96.106,574.191,569.864,0.0
49164.0,STARLINK-3106,PAYLOAD,2023-01-15 19:57:32,14.98338747,0.0002923,70.0027,291.1316,271.8675,88.2149,0.00029586,3.44e-05,0.0,0 STARLINK-3106,1 49164U 21082AL  23015.83162642  .00003440  00000-0  29586-3 0  9994,2 49164  70.0027 291.1316 0002923 271.8675  88.2149 14.98338747 75555,6950.166,96.106,574.062,569.999,0.0
49164.0,STARLINK-3106,PAYLOAD,2023-01-15 21:33:40,14.98342362,0.0002928999999999,70.0037,290.9641,271.6575,88.4249,0.00042715,5.009e-05,0.0,0 STARLINK-3106,1 49164U 21082AL  23015.89838596  .00005009  00000-0  42715-3 0  9990,2 49164  70.0037 290.9641 0002929 271.6575  88.4249 14.98342362 75569,6950.155,96.106,574.055,569.984,0.0
49164.0,STARLINK-3106,PAYLOAD,2023-01-16 02:22:04,14.98365622,0.0003111,70.0017,290.4582,270.2711,89.8092,0.001431,0.00017039,0.0,0 STARLINK-3106,1 49164U 21082AL  23016.09865932  .00017039  00000-0  14310-2 0  9992,2 49164  70.0017 290.4582 0003111 270.2711  89.8092 14.98365622 75595,6950.0830000000005,96.105,574.11,569.786,0.0
